{"type": "FeatureCollection", "features": [ {"type": "Feature", "properties": {"norad_id": 66806, "name": "STARLINK-36069", "group": "last-30-days", "lat": -36.13136901210445, "lon": 94.07587472315734, "alt_km": 347.4382018887509, "timestamp": "2025-12-17T13:48:36.280105+00:00", "meta": {"OBJECT_NAME": "STARLINK-36069", "OBJECT_ID": "2025-278R", "EPOCH": "2025-12-17T08:00:04.999680", "MEAN_MOTION": 15.75465138, "ECCENTRICITY": 0.00019201, "INCLINATION": 42.9993, "RA_OF_ASC_NODE": 223.9648, "ARG_OF_PERICENTER": 271.5577, "MEAN_ANOMALY": 34.2284, "EPHEMERIS_TYPE": 0, "CLASSIFICATION_TYPE": "U", "NORAD_CAT_ID": 66806, "ELEMENT_SET_NO": 999, "REV_AT_EPOCH": 348, "BSTAR": -0.010235151, "MEAN_MOTION_DOT": -0.01419477, "MEAN_MOTION_DDOT": 0}, "tle": {"line1": "1 66806U 25278R   25351.33339120 -.01419477  00000+0 -10235-1 0  9996", "line2": "2 66806  42.9993 223.9648 0001920 271.5577  34.2284 15.75465138  3487"}}, "geometry": {"type": "Point", "coordinates": [94.07587472315734, -36.13136901210445]}}, {"type": "Feature", "properties": {"norad_id": 66807, "name": "STARLINK-36000", "group": "last-30-days", "lat": -38.389295088351304, "lon": 100.7225238421931, "alt_km": 347.38873346391756, "timestamp": "2025-12-17T13:48:36.280126+00:00", "meta": {"OBJECT_NAME": "STARLINK-36000", "OBJECT_ID": "2025-278S", "EPOCH": "2025-12-17T08:00:04.999680", "MEAN_MOTION": 15.75490128, "ECCENTRICITY": 0.0001974, "INCLINATION": 42.9991, "RA_OF_ASC_NODE": 223.9503, "ARG_OF_PERICENTER": 265.3871, "MEAN_ANOMALY": 46.1548, "EPHEMERIS_TYPE": 0, "CLASSIFICATION_TYPE": "U", "NORAD_CAT_ID": 66807, "ELEMENT_SET_NO": 999, "REV_AT_EPOCH": 375, "BSTAR": -0.010634667, "MEAN_MOTION_DOT": -0.01469776, "MEAN_MOTION_DDOT": 0}, "tle": {"line1": "1 66807U 25278S   25351.33339120 -.01469776  00000+0 -10635-1 0  9998", "line2": "2 66807  42.9991 223.9503 0001974 265.3871  46.1548 15.75490128  3755"}}, "geometry": {"type": "Point", "coordinates": [100.7225238421931, -38.389295088351304]}}, {"type": "Feature", "properties": {"norad_id": 66808, "name": "STARLINK-36071", "group": "last-30-days", "lat": -39.06439241751733, "lon": 103.05743941476568, "alt_km": 347.43954857132303, "timestamp": "2025-12-17T13:48:36.280139+00:00", "meta": {"OBJECT_NAME": "STARLINK-36071", "OBJECT_ID": "2025-278T", "EPOCH": "2025-12-17T08:00:04.999680", "MEAN_MOTION": 15.75490127, "ECCENTRICITY": 0.00020094, "INCLINATION": 42.999, "RA_OF_ASC_NODE": 223.9453, "ARG_OF_PERICENTER": 264.4678, "MEAN_ANOMALY": 49.0327, "EPHEMERIS_TYPE": 0, "CLASSIFICATION_TYPE": "U", "NORAD_CAT_ID": 66808, "ELEMENT_SET_NO": 999, "REV_AT_EPOCH": 369, "BSTAR": -0.010963318, "MEAN_MOTION_DOT": -0.01509644, "MEAN_MOTION_DDOT": 0}, "tle": {"line1": "1 66808U 25278T   25351.33339120 -.01509644  00000+0 -10963-1 0  9992", "line2": "2 66808  42.9990 223.9453 0002009 264.4678  49.0327 15.75490127  3693"}}, "geometry": {"type": "Point", "coordinates": [103.05743941476568, -39.06439241751733]}}, {"type": "Feature", "properties": {"norad_id": 66809, "name": "STARLINK-35979", "group": "last-30-days", "lat": -40.76014078843816, "lon": 110.13675431552144, "alt_km": 347.44959339120396, "timestamp": "2025-12-17T13:48:36.280149+00:00", "meta": {"OBJECT_NAME": "STARLINK-35979", "OBJECT_ID": "2025-278U", "EPOCH": "2025-12-17T08:00:04.999680", "MEAN_MOTION": 15.75461132, "ECCENTRICITY": 0.00019921, "INCLINATION": 42.9992, "RA_OF_ASC_NODE": 223.9306, "ARG_OF_PERICENTER": 270.2418, "MEAN_ANOMALY": 48.9649, "EPHEMERIS_TYPE": 0, "CLASSIFICATION_TYPE": "U", "NORAD_CAT_ID": 66809, "ELEMENT_SET_NO": 999, "REV_AT_EPOCH": 369, "BSTAR": -0.010192134, "MEAN_MOTION_DOT": -0.01414015, "MEAN_MOTION_DDOT": 0}, "tle": {"line1": "1 66809U 25278U   25351.33339120 -.01414015  00000+0 -10192-1 0  9994", "line2": "2 66809  42.9992 223.9306 0001992 270.2418  48.9649 15.75461132  3699"}}, "geometry": {"type": "Point", "coordinates": [110.13675431552144, -40.76014078843816]}}, {"type": "Feature", "properties": {"norad_id": 66810, "name": "STARLINK-36046", "group": "last-30-days", "lat": -39.66695163148654, "lon": 105.33622183322332, "alt_km": 347.3365137484707, "timestamp": "2025-12-17T13:48:36.280158+00:00", "meta": {"OBJECT_NAME": "STARLINK-36046", "OBJECT_ID": "2025-278V", "EPOCH": "2025-12-17T08:00:04.999680", "MEAN_MOTION": 15.75473679, "ECCENTRICITY": 0.00020453, "INCLINATION": 42.9991, "RA_OF_ASC_NODE": 223.9405, "ARG_OF_PERICENTER": 265.3137, "MEAN_ANOMALY": 50.0462, "EPHEMERIS_TYPE": 0, "CLASSIFICATION_TYPE": "U", "NORAD_CAT_ID": 66810, "ELEMENT_SET_NO": 999, "REV_AT_EPOCH": 346, "BSTAR": -0.010262433, "MEAN_MOTION_DOT": -0.01423386, "MEAN_MOTION_DDOT": 0}, "tle": {"line1": "1 66810U 25278V   25351.33339120 -.01423386  00000+0 -10262-1 0  9995", "line2": "2 66810  42.9991 223.9405 0002045 265.3137  50.0462 15.75473679  3464"}}, "geometry": {"type": "Point", "coordinates": [105.33622183322332, -39.66695163148654]}}, {"type": "Feature", "properties": {"norad_id": 66811, "name": "STARLINK-36045", "group": "last-30-days", "lat": -40.23825651932593, "lon": 107.71725055313144, "alt_km": 347.452404997759, "timestamp": "2025-12-17T13:48:36.280168+00:00", "meta": {"OBJECT_NAME": "STARLINK-36045", "OBJECT_ID": "2025-278W", "EPOCH": "2025-12-17T08:00:04.999680", "MEAN_MOTION": 15.75469583, "ECCENTRICITY": 0.00019488, "INCLINATION": 42.999, "RA_OF_ASC_NODE": 223.9359, "ARG_OF_PERICENTER": 269.1296, "MEAN_ANOMALY": 48.153, "EPHEMERIS_TYPE": 0, "CLASSIFICATION_TYPE": "U", "NORAD_CAT_ID": 66811, "ELEMENT_SET_NO": 999, "REV_AT_EPOCH": 369, "BSTAR": -0.010260261, "MEAN_MOTION_DOT": -0.01422827, "MEAN_MOTION_DDOT": 0}, "tle": {"line1": "1 66811U 25278W   25351.33339120 -.01422827  00000+0 -10260-1 0  9993", "line2": "2 66811  42.9990 223.9359 0001948 269.1296  48.1530 15.75469583  3699"}}, "geometry": {"type": "Point", "coordinates": [107.71725055313144, -40.23825651932593]}}, {"type": "Feature", "properties": {"norad_id": 66812, "name": "STARLINK-36054", "group": "last-30-days", "lat": -41.229934571479774, "lon": 112.59141829137796, "alt_km": 347.339195324872, "timestamp": "2025-12-17T13:48:36.280179+00:00", "meta": {"OBJECT_NAME": "STARLINK-36054", "OBJECT_ID": "2025-278X", "EPOCH": "2025-12-17T08:00:04.999680", "MEAN_MOTION": 15.7546407, "ECCENTRICITY": 0.00022043, "INCLINATION": 42.9992, "RA_OF_ASC_NODE": 223.9261, "ARG_OF_PERICENTER": 272.3955, "MEAN_ANOMALY": 48.729, "EPHEMERIS_TYPE": 0, "CLASSIFICATION_TYPE": "U", "NORAD_CAT_ID": 66812, "ELEMENT_SET_NO": 999, "REV_AT_EPOCH": 369, "BSTAR": -0.010248952, "MEAN_MOTION_DOT": -0.01421299, "MEAN_MOTION_DDOT": 0}, "tle": {"line1": "1 66812U 25278X   25351.33339120 -.01421299  00000+0 -10249-1 0  9993", "line2": "2 66812  42.9992 223.9261 0002204 272.3955  48.7290 15.75464070  3693"}}, "geometry": {"type": "Point", "coordinates": [112.59141829137796, -41.229934571479774]}}, {"type": "Feature", "properties": {"norad_id": 66813, "name": "STARLINK-36042", "group": "last-30-days", "lat": -41.64625577522968, "lon": 115.07727428289586, "alt_km": 347.4034686084515, "timestamp": "2025-12-17T13:48:36.280188+00:00", "meta": {"OBJECT_NAME": "STARLINK-36042", "OBJECT_ID": "2025-278Y", "EPOCH": "2025-12-17T08:00:04.999680", "MEAN_MOTION": 15.75463179, "ECCENTRICITY": 0.00020986, "INCLINATION": 42.999, "RA_OF_ASC_NODE": 223.9207, "ARG_OF_PERICENTER": 272.2809, "MEAN_ANOMALY": 50.7584, "EPHEMERIS_TYPE": 0, "CLASSIFICATION_TYPE": "U", "NORAD_CAT_ID": 66813, "ELEMENT_SET_NO": 999, "REV_AT_EPOCH": 369, "BSTAR": -0.0102161, "MEAN_MOTION_DOT": -0.01417144, "MEAN_MOTION_DDOT": 0}, "tle": {"line1": "1 66813U 25278Y   25351.33339120 -.01417144  00000+0 -10216-1 0  9992", "line2": "2 66813  42.9990 223.9207 0002098 272.2809  50.7584 15.75463179  3698"}}, "geometry": {"type": "Point", "coordinates": [115.07727428289586, -41.64625577522968]}}, {"type": "Feature", "properties": {"norad_id": 66814, "name": "STARLINK-35984", "group": "last-30-days", "lat": -42.96211525967926, "lon": 130.49827998548787, "alt_km": 347.33739559638616, "timestamp": "2025-12-17T13:48:36.280197+00:00", "meta": {"OBJECT_NAME": "STARLINK-35984", "OBJECT_ID": "2025-278Z", "EPOCH": "2025-12-17T08:00:04.999680", "MEAN_MOTION": 15.75461296, "ECCENTRICITY": 0.00021814, "INCLINATION": 42.9991, "RA_OF_ASC_NODE": 223.8912, "ARG_OF_PERICENTER": 273.0374, "MEAN_ANOMALY": 61.5019, "EPHEMERIS_TYPE": 0, "CLASSIFICATION_TYPE": "U", "NORAD_CAT_ID": 66814, "ELEMENT_SET_NO": 999, "REV_AT_EPOCH": 378, "BSTAR": -0.01017163, "MEAN_MOTION_DOT": -0.01411627, "MEAN_MOTION_DDOT": 0}, "tle": {"line1": "1 66814U 25278Z   25351.33339120 -.01411627  00000+0 -10172-1 0  9994", "line2": "2 66814  42.9991 223.8912 0002181 273.0374  61.5019 15.75461296  3782"}}, "geometry": {"type": "Point", "coordinates": [130.49827998548787, -42.96211525967926]}}, {"type": "Feature", "properties": {"norad_id": 66815, "name": "STARLINK-35985", "group": "last-30-days", "lat": -42.88874586420478, "lon": 127.88983550937152, "alt_km": 347.392392116838, "timestamp": "2025-12-17T13:48:36.280210+00:00", "meta": {"OBJECT_NAME": "STARLINK-35985", "OBJECT_ID": "2025-278AA", "EPOCH": "2025-12-17T08:00:04.999680", "MEAN_MOTION": 15.75471672, "ECCENTRICITY": 0.00020667, "INCLINATION": 42.9993, "RA_OF_ASC_NODE": 223.8959, "ARG_OF_PERICENTER": 269.3118, "MEAN_ANOMALY": 63.3018, "EPHEMERIS_TYPE": 0, "CLASSIFICATION_TYPE": "U", "NORAD_CAT_ID": 66815, "ELEMENT_SET_NO": 999, "REV_AT_EPOCH": 378, "BSTAR": -0.010237768, "MEAN_MOTION_DOT": -0.01420258, "MEAN_MOTION_DDOT": 0}, "tle": {"line1": "1 66815U 25278AA  25351.33339120 -.01420258  00000+0 -10238-1 0  9998", "line2": "2 66815  42.9993 223.8959 0002066 269.3118  63.3018 15.75471672  3780"}}, "geometry": {"type": "Point", "coordinates": [127.88983550937152, -42.88874586420478]}}]}